{
  "type": "FeatureCollection",
  "features": [
    {
      "type": "Feature",
      "geometry": {
        "type": "Polygon",
        "coordinates": [
          [
            [
              80.92755569107723,
              12.079998635238404
            ],
            [
              80.92752236312302,
              12.078667964739354
            ],
            [
              80.92742273237843,
              12.077340506362678
            ],
            [
              80.9272570398344,
              12.07601945800151
            ],
            [
              80.92702568561144,
              12.074708002061099
            ],
            [
              80.92672922798663,
              12.07340929779321
            ],
            [
              80.92636838203964,
              12.072126473686792
            ],
            [
              80.92594401792174,
              12.070862619933127
            ],
            [
              80.92545715875113,
              12.069620780983632
            ],
            [
              80.92490897814088,
              12.068403948218286
            ],
            [
              80.92430079736444,
              12.067215052742162
            ],
            [
              80.92363408216629,
              12.066056958327543
            ],
            [
              80.92291043922528,
              12.064932454518523
            ],
            [
              80.92213161227912,
              12.06384424991467
            ],
            [
              80.92129947791956,
              12.062794965649871
            ],
            [
              80.9204160410684,
              12.061787129082125
            ],
            [
              80.91948343014516,
              12.060823167709318
            ],
            [
              80.91850389193813,
              12.059905403325677
            ],
            [
              80.91747978619134,
              12.05903604643293
            ],
            [
              80.9164135799201,
              12.058217190919525
            ],
            [
              80.91530784146926,
              12.05745080902083
            ],
            [
              80.91416523432802,
              12.056738746572204
            ],
            [
              80.91298851071672,
              12.056082718566538
            ],
            [
              80.91178050496038,
              12.055484305026777
            ],
            [
              80.91054412666557,
              12.054944947203435
            ],
            [
              80.90928235371645,
              12.054465944106102
            ],
            [
              80.90799822510716,
              12.054048449377428
            ],
            [
              80.90669483362767,
              12.05369346851693
            ],
            [
              80.90537531842041,
              12.05340185646136
            ],
            [
              80.90404285742609,
              12.053174315527416
            ],
            [
              80.90270065973611,
              12.053011393721778
            ],
            [
              80.9013519578706,
              12.05291348342239
            ],
            [
              80.9,
              12.05288082043433
            ],
            [
              80.89864804212941,
              12.05291348342239
            ],
            [
              80.8972993402639,
              12.053011393721778
            ],
            [
              80.89595714257392,
              12.053174315527416
            ],
            [
              80.8946246815796,
              12.05340185646136
            ],
            [
              80.89330516637234,
              12.05369346851693
            ],
            [
              80.89200177489285,
              12.054048449377428
            ],
            [
              80.89071764628356,
              12.054465944106102
            ],
            [
              80.88945587333444,
              12.054944947203435
            ],
            [
              80.88821949503964,
              12.055484305026777
            ],
            [
              80.8870114892833,
              12.056082718566538
            ],
            [
              80.88583476567199,
              12.056738746572204
            ],
            [
              80.88469215853075,
              12.05745080902083
            ],
            [
              80.88358642007991,
              12.058217190919525
            ],
            [
              80.88252021380868,
              12.05903604643293
            ],
            [
              80.88149610806188,
              12.059905403325677
            ],
            [
              80.88051656985485,
              12.060823167709318
            ],
            [
              80.8795839589316,
              12.061787129082125
            ],
            [
              80.87870052208045,
              12.062794965649871
            ],
            [
              80.8778683877209,
              12.06384424991467
            ],
            [
              80.87708956077473,
              12.064932454518523
            ],
            [
              80.87636591783372,
              12.066056958327543
            ],
            [
              80.87569920263557,
              12.067215052742162
            ],
            [
              80.87509102185913,
              12.068403948218286
            ],
            [
              80.87454284124888,
              12.069620780983632
            ],
            [
              80.87405598207827,
              12.070862619933127
            ],
            [
              80.87363161796037,
              12.072126473686792
            ],
            [
              80.87327077201338,
              12.07340929779321
            ],
            [
              80.87297431438857,
              12.074708002061097
            ],
            [
              80.87274296016561,
              12.07601945800151
            ],
            [
              80.87257726762158,
              12.077340506362676
            ],
            [
              80.872477636877,
              12.078667964739354
            ],
            [
              80.8724443089228,
              12.079998635238404
            ],
            [
              80.87247736503036,
              12.081329312182103
            ],
            [
              80.87257672654634,
              12.082656789830661
            ],
            [
              80.8727421550726,
              12.08397787010534
            ],
            [
              80.87297325303126,
              12.085289370293554
            ],
            [
              80.87326946461326,
              12.086588130717397
            ],
            [
              80.87363007710836,
              12.087871022347121
            ],
            [
              80.87405422261367,
              12.089134954341153
            ],
            [
              80.87454088011626,
              12.09037688149457
            ],
            [
              80.87508887794527,
              12.091593811577951
            ],
            [
              80.87569689658754,
              12.092782812549002
            ],
            [
              80.87636347186,
              12.093941019619454
            ],
            [
              80.8770869984314,
              12.095065642160279
            ],
            [
              80.87786573368469,
              12.096153970428473
            ],
            [
              80.87869780191119,
              12.09720338209917
            ],
            [
              80.879581198826,
              12.098211348587396
            ],
            [
              80.88051379639427,
              12.099175441144057
            ],
            [
              80.88149334795622,
              12.100093336711552
            ],
            [
              80.88251749363928,
              12.100962823524792
            ],
            [
              80.88358376604349,
              12.101781806444107
            ],
            [
              80.88468959618716,
              12.102548312007148
            ],
            [
              80.88583231969797,
              12.103260493187603
            ],
            [
              80.88700918323494,
              12.103916633849128
            ],
            [
              80.88821735112545,
              12.104515152883828
            ],
            [
              80.88945391220149,
              12.105054608025236
            ],
            [
              80.89071588681863,
              12.10553369932652
            ],
            [
              80.89200023404055,
              12.105951272295577
            ],
            [
              80.89330385897193,
              12.1063063206794
            ],
            [
              80.89462362022206,
              12.106597988890952
            ],
            [
              80.89595633748071,
              12.106825574072703
            ],
            [
              80.8972987991885,
              12.10698852779187
            ],
            [
              80.89864777028271,
              12.107086457363144
            ],
            [
              80.9,
              12.107119126795855
            ],
            [
              80.9013522297173,
              12.107086457363144
            ],
            [
              80.9027012008115,
              12.10698852779187
            ],
            [
              80.9040436625193,
              12.106825574072703
            ],
            [
              80.90537637977795,
              12.106597988890952
            ],
            [
              80.90669614102808,
              12.1063063206794
            ],
            [
              80.90799976595946,
              12.105951272295577
            ],
            [
              80.90928411318139,
              12.105533699326521
            ],
            [
              80.91054608779852,
              12.105054608025236
            ],
            [
              80.91178264887458,
              12.10451515288383
            ],
            [
              80.91299081676507,
              12.103916633849126
            ],
            [
              80.91416768030204,
              12.103260493187603
            ],
            [
              80.91531040381285,
              12.10254831200715
            ],
            [
              80.91641623395651,
              12.101781806444107
            ],
            [
              80.91748250636073,
              12.100962823524789
            ],
            [
              80.91850665204379,
              12.100093336711549
            ],
            [
              80.91948620360574,
              12.099175441144059
            ],
            [
              80.920418801174,
              12.098211348587398
            ],
            [
              80.92130219808882,
              12.09720338209917
            ],
            [
              80.92213426631533,
              12.096153970428473
            ],
            [
              80.92291300156863,
              12.095065642160279
            ],
            [
              80.92363652814002,
              12.093941019619455
            ],
            [
              80.92430310341247,
              12.092782812549002
            ],
            [
              80.92491112205474,
              12.091593811577955
            ],
            [
              80.92545911988374,
              12.09037688149457
            ],
            [
              80.92594577738635,
              12.089134954341153
            ],
            [
              80.92636992289165,
              12.087871022347123
            ],
            [
              80.92673053538675,
              12.086588130717399
            ],
            [
              80.92702674696874,
              12.085289370293552
            ],
            [
              80.92725784492741,
              12.083977870105336
            ],
            [
              80.92742327345368,
              12.082656789830661
            ],
            [
              80.92752263496965,
              12.081329312182103
            ],
            [
              80.92755569107723,
              12.079998635238404
            ]
          ]
        ]
      },
      "properties": {
        "id": "demo-mpa",
        "name": "Demo Marine Reserve",
        "kind": "protected_area",
        "source_type": "SYNTHETIC"
      }
    },
    {
      "type": "Feature",
      "geometry": {
        "type": "Polygon",
        "coordinates": [
          [
            [
              81.06591595189067,
              12.019996228369052
            ],
            [
              81.06586026859242,
              12.017778438378112
            ],
            [
              81.06569410665536,
              12.015566008979702
            ],
            [
              81.06541786906236,
              12.013364269914138
            ],
            [
              81.06503222392506,
              12.011178525041808
            ],
            [
              81.06453810284899,
              12.00901403956884
            ],
            [
              81.0639366986649,
              12.006876027367076
            ],
            [
              81.06322946253135,
              12.004769638418875
            ],
            [
              81.06241810041665,
              12.00269994641688
            ],
            [
              81.061504568968,
              12.00067193654861
            ],
            [
              81.0604910707787,
              11.998690493495248
            ],
            [
              81.05938004906432,
              11.996760389673351
            ],
            [
              81.05817418176156,
              11.994886273747866
            ],
            [
              81.05687637506345,
              11.993072659443902
            ],
            [
              81.05548975640716,
              11.991323914684166
            ],
            [
              81.05401766693102,
              11.989644251078136
            ],
            [
              81.05246365341925,
              11.988037713788119
            ],
            [
              81.05083145975378,
              11.98650817179655
            ],
            [
              81.04912501789372,
              11.985059308597814
            ],
            [
              81.04734843840434,
              11.98369461333697
            ],
            [
              81.04550600055828,
              11.982417372416474
            ],
            [
              81.04360214203282,
              11.981230661591132
            ],
            [
              81.041641448228,
              11.980137338570147
            ],
            [
              81.03962864123123,
              11.979140036143985
            ],
            [
              81.03756856845469,
              11.97824115585248
            ],
            [
              81.03546619097312,
              11.977442862209381
            ],
            [
              81.03332657158971,
              11.97674707749714
            ],
            [
              81.03115486265855,
              11.97615547714436
            ],
            [
              81.02895629369316,
              11.975669485696985
            ],
            [
              81.02673615879037,
              11.97529027339288
            ],
            [
              81.0244998038999,
              11.975018753347994
            ],
            [
              81.02225261397007,
              11.974855579360769
            ],
            [
              81.02,
              11.974801144340125
            ],
            [
              81.01774738602994,
              11.974855579360769
            ],
            [
              81.01550019610009,
              11.975018753347994
            ],
            [
              81.01326384120964,
              11.97529027339288
            ],
            [
              81.01104370630684,
              11.975669485696985
            ],
            [
              81.00884513734144,
              11.97615547714436
            ],
            [
              81.00667342841028,
              11.97674707749714
            ],
            [
              81.00453380902688,
              11.977442862209381
            ],
            [
              81.00243143154532,
              11.97824115585248
            ],
            [
              81.00037135876876,
              11.979140036143985
            ],
            [
              80.99835855177199,
              11.980137338570147
            ],
            [
              80.99639785796717,
              11.981230661591132
            ],
            [
              80.99449399944172,
              11.982417372416474
            ],
            [
              80.99265156159565,
              11.98369461333697
            ],
            [
              80.99087498210628,
              11.985059308597814
            ],
            [
              80.98916854024621,
              11.98650817179655
            ],
            [
              80.98753634658074,
              11.988037713788119
            ],
            [
              80.98598233306897,
              11.989644251078138
            ],
            [
              80.98451024359284,
              11.991323914684166
            ],
            [
              80.98312362493654,
              11.993072659443902
            ],
            [
              80.98182581823845,
              11.994886273747866
            ],
            [
              80.98061995093568,
              11.996760389673351
            ],
            [
              80.9795089292213,
              11.998690493495248
            ],
            [
              80.97849543103199,
              12.00067193654861
            ],
            [
              80.97758189958336,
              12.00269994641688
            ],
            [
              80.97677053746864,
              12.004769638418875
            ],
            [
              80.97606330133509,
              12.006876027367076
            ],
            [
              80.97546189715099,
              12.009014039568841
            ],
            [
              80.97496777607495,
              12.011178525041808
            ],
            [
              80.97458213093763,
              12.013364269914138
            ],
            [
              80.97430589334463,
              12.0155660089797
            ],
            [
              80.97413973140759,
              12.017778438378112
            ],
            [
              80.97408404810932,
              12.019996228369052
            ],
            [
              80.97413898030719,
              12.022214036170148
            ],
            [
              80.97430439837731,
              12.0244265188275
            ],
            [
              80.97457990650076,
              12.026628346087874
            ],
            [
              80.97496484359102,
              12.028814213241525
            ],
            [
              80.97545828486143,
              12.030978853904696
            ],
            [
              80.97605904402819,
              12.033117052710965
            ],
            [
              80.97676567614454,
              12.03522365788089
            ],
            [
              80.97757648105922,
              12.037293593639493
            ],
            [
              80.97848950749115,
              12.039321872451728
            ],
            [
              80.97950255771066,
              12.04130360704637
            ],
            [
              80.9806131928163,
              12.043234022199135
            ],
            [
              80.98181873859471,
              12.045108466246806
            ],
            [
              80.98311629194926,
              12.04692242230428
            ],
            [
              80.98450272788267,
              12.048671519157566
            ],
            [
              80.9859747070163,
              12.050351541806348
            ],
            [
              80.98752868362861,
              12.051958441630543
            ],
            [
              80.98916091419304,
              12.053488346156307
            ],
            [
              80.99086746639512,
              12.054937568397845
            ],
            [
              80.99264422860695,
              12.056302615752328
            ],
            [
              80.99448691979617,
              12.057580198426447
            ],
            [
              80.99639109984567,
              12.058767237374115
            ],
            [
              80.99835218025895,
              12.059860871726125
            ],
            [
              81.0003654352254,
              12.060858465693736
            ],
            [
              81.0024260130186,
              12.061757614929402
            ],
            [
              81.00452894770024,
              12.062556152329279
            ],
            [
              81.006669171101,
              12.063252153263411
            ],
            [
              81.00884152504973,
              12.063843940220861
            ],
            [
              81.0110407738211,
              12.064330086858583
            ],
            [
              81.01326161677133,
              12.064709421444121
            ],
            [
              81.0154987011318,
              12.064981029683905
            ],
            [
              81.01774663492904,
              12.065144256930125
            ],
            [
              81.02,
              12.065198709760939
            ],
            [
              81.02225336507097,
              12.065144256930125
            ],
            [
              81.0245012988682,
              12.064981029683905
            ],
            [
              81.02673838322868,
              12.064709421444121
            ],
            [
              81.0289592261789,
              12.06433008685858
            ],
            [
              81.03115847495027,
              12.063843940220863
            ],
            [
              81.03333082889901,
              12.06325215326341
            ],
            [
              81.03547105229976,
              12.062556152329279
            ],
            [
              81.03757398698139,
              12.061757614929402
            ],
            [
              81.03963456477459,
              12.060858465693736
            ],
            [
              81.04164781974104,
              12.059860871726125
            ],
            [
              81.04360890015433,
              12.058767237374116
            ],
            [
              81.04551308020382,
              12.057580198426445
            ],
            [
              81.04735577139306,
              12.056302615752328
            ],
            [
              81.04913253360488,
              12.054937568397843
            ],
            [
              81.05083908580696,
              12.053488346156305
            ],
            [
              81.05247131637138,
              12.05195844163054
            ],
            [
              81.0540252929837,
              12.050351541806348
            ],
            [
              81.05549727211732,
              12.048671519157566
            ],
            [
              81.05688370805073,
              12.04692242230428
            ],
            [
              81.0581812614053,
              12.045108466246806
            ],
            [
              81.05938680718369,
              12.043234022199135
            ],
            [
              81.06049744228935,
              12.04130360704637
            ],
            [
              81.06151049250886,
              12.03932187245173
            ],
            [
              81.06242351894078,
              12.037293593639493
            ],
            [
              81.06323432385547,
              12.03522365788089
            ],
            [
              81.0639409559718,
              12.033117052710969
            ],
            [
              81.06454171513856,
              12.030978853904697
            ],
            [
              81.06503515640897,
              12.028814213241525
            ],
            [
              81.06542009349924,
              12.026628346087874
            ],
            [
              81.06569560162268,
              12.0244265188275
            ],
            [
              81.06586101969282,
              12.022214036170146
            ],
            [
              81.06591595189067,
              12.019996228369052
            ]
          ]
        ]
      },
      "properties": {
        "id": "demo-fish",
        "name": "Demo Fishing Zone",
        "kind": "fishery",
        "source_type": "SYNTHETIC"
      }
    },
    {
      "type": "Feature",
      "geometry": {
        "type": "Point",
        "coordinates": [
          80.32,
          13.08
        ]
      },
      "properties": {
        "id": "demo-port",
        "name": "Demo port receptor",
        "kind": "port",
        "source_type": "SYNTHETIC"
      }
    }
  ],
  "source": "Synthetic exposure fixtures",
  "version": "1",
  "source_type": "SYNTHETIC"
}